[{"OBJECT_NAME":"STARLINK-2427","OBJECT_ID":"2021-018BC","EPOCH":"2026-03-09T18:11:25.778400","MEAN_MOTION":15.06392882,"ECCENTRICITY":0.00011446,"INCLINATION":53.0562,"RA_OF_ASC_NODE":231.3107,"ARG_OF_PERICENTER":96.8268,"MEAN_ANOMALY":263.2851,"EPHEMERIS_TYPE":0,"CLASSIFICATION_TYPE":"U","NORAD_CAT_ID":47837,"ELEMENT_SET_NO":999,"REV_AT_EPOCH":27689,"BSTAR":4.3799015e-5,"MEAN_MOTION_DOT":3.71e-6,"MEAN_MOTION_DDOT":0},{"OBJECT_NAME":"UNISAT-5","OBJECT_ID":"2013-066F","EPOCH":"2026-03-09T22:02:55.134816","MEAN_MOTION":15.04155626,"ECCENTRICITY":0.00317175,"INCLINATION":97.6976,"RA_OF_ASC_NODE":39.5171,"ARG_OF_PERICENTER":68.1555,"MEAN_ANOMALY":292.3039,"EPHEMERIS_TYPE":0,"CLASSIFICATION_TYPE":"U","NORAD_CAT_ID":39421,"ELEMENT_SET_NO":999,"REV_AT_EPOCH":66774,"BSTAR":0.0004680489,"MEAN_MOTION_DOT":6.504e-5,"MEAN_MOTION_DDOT":0}]
